NAVSTAR 77 (USA 289)    
1 43873U 18109A   24235.92277983  .00000006  00000+0  00000+0 0  9991
2 43873  55.3201 118.3903 0030077 192.8938 181.6140  2.00558742 41778
